CAS-2T & KS-1Q          
1 41847U 16066G   20281.78193622  .00000061  00000-0  20485-4 0  9994
2 41847  98.6415 333.3588 0364487 254.1078 101.9661 14.38096267205569
NAYIF-1 (EO-88)         
1 42017U 17008BX  20281.76310153  .00001804  00000-0  71202-4 0  9998
2 42017  97.3492 347.6420 0004530 290.1250  69.9502 15.26812747202689
MAX VALIER SAT          
1 42778U 17036P   20281.71443862  .00001002  00000-0  45705-4 0  9991
2 42778  97.2929 332.1821 0011773 355.7466   4.3669 15.22813216182812
RADFXSAT (FOX-1B)       
1 43017U 17073E   20281.69729109  .00000896  00000-0  74122-4 0  9992
2 43017  97.7149 189.5671 0257755  44.8177 317.3540 14.79049250155750
FOX-1D (AO-92)          
1 43137U 18004AC  20281.74470769  .00001157  00000-0  50183-4 0  9993
2 43137  97.4360 352.1000 0009791  30.6630 329.5177 15.24336820152145
DIWATA-2B               
1 43678U 18084H   20282.23809809  .00000465  00000-0  52002-4 0  9990
2 43678  97.8967  40.7181 0010453 156.3938 203.7781 14.91659714105837
ES'HAIL 2               
1 43700U 18090A   20282.16577196  .00000147  00000-0  00000+0 0  9999
2 43700   0.0130 251.7861 0002091 331.3093 239.6708  1.00273034  7084
FOX-1CLIFF (AO-95)      
1 43770U 18099N   20282.15210503  .00000696  00000-0  68629-4 0  9995
2 43770  97.6962 351.5152 0014754 174.8775 185.2600 14.95058653100755
ITASAT 1                
1 43786U 18099AE  20282.19073872  .00000055  00000-0  10192-4 0  9993
2 43786  97.6976 352.0534 0015515 169.2553 190.9002 14.95385503100784
JY1SAT (JO-97)          
1 43803U 18099AX  20282.19149336  .00000177  00000-0  21112-4 0  9991
2 43803  97.6936 351.8474 0015498 169.4777 190.6771 14.95575649100782
PSAT2 (NO-104)          
1 44354U 19036R   20281.43646945  .00010244  00000-0  14521-3 0  9990
2 44354  28.5299   4.1051 0356595  68.7732 295.0563 15.05550366 70692
BRICSAT2 (NO-103)       
1 44355U 19036S   20281.50778536  .00018110  00000-0  24099-3 0  9992
2 44355  28.5294 348.0347 0328095  94.8659 268.9470 15.12842790 70866
JAISAT-1                
1 44419U 19038F   20281.86407402  .00001046  00000-0  62696-4 0  9991
2 44419  97.5520 242.2287 0023114 102.1888 258.1933 15.12958823 69592
DUCHIFAT-3              
1 44854U 19089C   20281.99294646  .00000440  00000-0  41879-4 0  9995
2 44854  36.9655 153.2320 0009450 258.2395 101.7298 14.99148347 45196
RS-44 & BREEZE-KM R/B   
1 44909U 19096E   20281.94113404  .00000009  00000-0 -10531-5 0  9995
2 44909  82.5166 280.5667 0216739 323.7717  34.8867 12.79708397 36578
ORBITAL FACTORY 2 (OF-2)
1 45113U 19071C   20281.89628857  .00001874  00000-0  67865-4 0  9994
2 45113  51.6424 180.2189 0013592 102.1351 258.1155 15.33777163 38382
HUSKYSAT-1              
1 45119U 19071J   20282.12039145  .00002799  00000-0  95141-4 0  9998
2 45119  51.6419 178.7155 0012832  99.6530 260.5902 15.33963230 38415
